start=new Date('2022-06-26T00:00:00.000Z').valueOf();
sats=[{"INCLINATION":"70.0002","SITE":"AFWTR","MEAN_MOTION_DOT":"-0.00000289","OBJECT_ID":"2021-082AM","SEMIMAJOR_AXIS":"6950.218","COUNTRY_CODE":"US","MEAN_ELEMENT_THEORY":"SGP4","TLE_LINE1":"1 49165U 21082AM  22176.84521351 -.00000289  00000-0 -16464-4 0  9991","REF_FRAME":"TEME","CLASSIFICATION_TYPE":"U","OBJECT_NAME":"STARLINK-3052","ECCENTRICITY":"0.00031760","GP_ID":"206855864","MEAN_MOTION_DDOT":"0.0000000000000","APOAPSIS":"574.291","MEAN_ANOMALY":"90.9984","LAUNCH_DATE":"2021-09-14","TIME_SYSTEM":"UTC","PERIOD":"96.108","RCS_SIZE":"LARGE","PERIAPSIS":"569.876","REV_AT_EPOCH":"4453","ARG_OF_PERICENTER":"269.0811","NORAD_CAT_ID":"49165","EPOCH":"2022-06-25T20:17:06.447264","BSTAR":"-0.00001646400000","EPHEMERIS_TYPE":"0","RA_OF_ASC_NODE":"105.4451","ELEMENT_SET_NO":"999","MEAN_MOTION":"14.98321768","CENTER_NAME":"EARTH","OBJECT_TYPE":"PAYLOAD","TLE_LINE2":"2 49165  70.0002 105.4451 0003176 269.0811  90.9984 14.98321768 44534","FILE":"3502557","DECAY_DATE":null},{"PERIOD":"96.210","LAUNCH_DATE":"2021-09-14","TIME_SYSTEM":"UTC","RCS_SIZE":"LARGE","PERIAPSIS":"574.703","REV_AT_EPOCH":"4504","ARG_OF_PERICENTER":"264.9305","BSTAR":"-0.00000754100000","EPOCH":"2022-06-25T21:13:03.403488","NORAD_CAT_ID":"49166","EPHEMERIS_TYPE":"0","RA_OF_ASC_NODE":"84.9485","ELEMENT_SET_NO":"999","CENTER_NAME":"EARTH","MEAN_MOTION":"14.96718957","OBJECT_TYPE":"PAYLOAD","TLE_LINE2":"2 49166  69.9988  84.9485 0003366 264.9305  95.1469 14.96718957 45046","FILE":"3502557","DECAY_DATE":null,"INCLINATION":"69.9988","SITE":"AFWTR","MEAN_MOTION_DOT":"-0.00000178","OBJECT_ID":"2021-082AN","MEAN_ELEMENT_THEORY":"SGP4","TLE_LINE1":"1 49166U 21082AN  22176.88406717 -.00000178  00000-0 -75410-5 0  9998","SEMIMAJOR_AXIS":"6955.179","COUNTRY_CODE":"US","REF_FRAME":"TEME","CLASSIFICATION_TYPE":"U","OBJECT_NAME":"STARLINK-3089","GP_ID":"206856114","ECCENTRICITY":"0.00033660","MEAN_MOTION_DDOT":"0.0000000000000","APOAPSIS":"579.385","MEAN_ANOMALY":"95.1469"},{"CLASSIFICATION_TYPE":"U","OBJECT_NAME":"STARLINK-3054","MEAN_MOTION_DDOT":"0.0000000000000","ECCENTRICITY":"0.00030940","GP_ID":"206857365","MEAN_ANOMALY":"95.6358","APOAPSIS":"574.195","SITE":"AFWTR","INCLINATION":"69.9996","MEAN_MOTION_DOT":"0.00000258","SEMIMAJOR_AXIS":"6950.179","COUNTRY_CODE":"US","TLE_LINE1":"1 49167U 21082AP  22176.90719557  .00000258  00000-0  29398-4 0  9991","MEAN_ELEMENT_THEORY":"SGP4","OBJECT_ID":"2021-082AP","REF_FRAME":"TEME","MEAN_MOTION":"14.98334387","CENTER_NAME":"EARTH","ELEMENT_SET_NO":"999","TLE_LINE2":"2 49167  69.9996 105.2946 0003094 264.4448  95.6358 14.98334387 44545","OBJECT_TYPE":"PAYLOAD","FILE":"3502557","DECAY_DATE":null,"RCS_SIZE":"LARGE","LAUNCH_DATE":"2021-09-14","TIME_SYSTEM":"UTC","PERIOD":"96.107","PERIAPSIS":"569.894","REV_AT_EPOCH":"4454","ARG_OF_PERICENTER":"264.4448","EPHEMERIS_TYPE":"0","RA_OF_ASC_NODE":"105.2946","EPOCH":"2022-06-25T21:46:21.697248","NORAD_CAT_ID":"49167","BSTAR":"0.00002939800000"},{"ARG_OF_PERICENTER":"259.6793","PERIAPSIS":"574.877","REV_AT_EPOCH":"4505","EPOCH":"2022-06-25T22:28:15.222720","NORAD_CAT_ID":"49168","BSTAR":"-0.00000421470000","EPHEMERIS_TYPE":"0","RA_OF_ASC_NODE":"84.8241","LAUNCH_DATE":"2021-09-14","PERIOD":"96.211","TIME_SYSTEM":"UTC","RCS_SIZE":"LARGE","FILE":"3502557","DECAY_DATE":null,"ELEMENT_SET_NO":"999","MEAN_MOTION":"14.96707213","CENTER_NAME":"EARTH","OBJECT_TYPE":"PAYLOAD","TLE_LINE2":"2 49168  69.9996  84.8241 0003168 259.6793 100.4008 14.96707213 45051","OBJECT_ID":"2021-082AQ","COUNTRY_CODE":"US","SEMIMAJOR_AXIS":"6955.216","MEAN_ELEMENT_THEORY":"SGP4","TLE_LINE1":"1 49168U 21082AQ  22176.93628730 -.00000140  00000-0 -42147-5 0  9997","REF_FRAME":"TEME","INCLINATION":"69.9996","SITE":"AFWTR","MEAN_MOTION_DOT":"-0.00000140","ECCENTRICITY":"0.00031680","GP_ID":"206857615","MEAN_MOTION_DDOT":"0.0000000000000","APOAPSIS":"579.284","MEAN_ANOMALY":"100.4008","CLASSIFICATION_TYPE":"U","OBJECT_NAME":"STARLINK-3101"},{"REF_FRAME":"TEME","COUNTRY_CODE":"US","SEMIMAJOR_AXIS":"6955.175","TLE_LINE1":"1 49169U 21082AR  22176.87431160  .00001388  00000-0  12921-3 0  9998","MEAN_ELEMENT_THEORY":"SGP4","OBJECT_ID":"2021-082AR","MEAN_MOTION_DOT":"0.00001388","SITE":"AFWTR","INCLINATION":"70.0002","MEAN_ANOMALY":"101.5299","APOAPSIS":"578.950","MEAN_MOTION_DDOT":"0.0000000000000","ECCENTRICITY":"0.00027470","GP_ID":"206856364","OBJECT_NAME":"STARLINK-3046","CLASSIFICATION_TYPE":"U","EPHEMERIS_TYPE":"0","RA_OF_ASC_NODE":"84.9794","EPOCH":"2022-06-25T20:59:00.522240","NORAD_CAT_ID":"49169","BSTAR":"0.00012921000000","ARG_OF_PERICENTER":"258.5551","PERIAPSIS":"575.129","REV_AT_EPOCH":"4384","RCS_SIZE":"LARGE","LAUNCH_DATE":"2021-09-14","PERIOD":"96.210","TIME_SYSTEM":"UTC","DECAY_DATE":null,"FILE":"3502557","TLE_LINE2":"2 49169  70.0002  84.9794 0002747 258.5551 101.5299 14.96720436 43840","OBJECT_TYPE":"PAYLOAD","MEAN_MOTION":"14.96720436","CENTER_NAME":"EARTH","ELEMENT_SET_NO":"999"},{"EPHEMERIS_TYPE":"0","RA_OF_ASC_NODE":"105.5214","NORAD_CAT_ID":"49170","EPOCH":"2022-06-25T19:32:57.114816","BSTAR":"0.00002636400000","PERIAPSIS":"570.063","ARG_OF_PERICENTER":"266.3247","REV_AT_EPOCH":"4333","RCS_SIZE":"LARGE","PERIOD":"96.107","LAUNCH_DATE":"2021-09-14","TIME_SYSTEM":"UTC","DECAY_DATE":null,"FILE":"3502404","TLE_LINE2":"2 49170  69.9992 105.5214 0002895 266.3247  93.7581 14.98324557 43333","OBJECT_TYPE":"PAYLOAD","MEAN_MOTION":"14.98324557","CENTER_NAME":"EARTH","ELEMENT_SET_NO":"999","REF_FRAME":"TEME","SEMIMAJOR_AXIS":"6950.210","COUNTRY_CODE":"US","MEAN_ELEMENT_THEORY":"SGP4","TLE_LINE1":"1 49170U 21082AS  22176.81454994  .00000222  00000-0  26364-4 0  9997","OBJECT_ID":"2021-082AS","MEAN_MOTION_DOT":"0.00000222","SITE":"AFWTR","INCLINATION":"69.9992","MEAN_ANOMALY":"93.7581","APOAPSIS":"574.087","MEAN_MOTION_DDOT":"0.0000000000000","ECCENTRICITY":"0.00028950","GP_ID":"206829896","OBJECT_NAME":"STARLINK-3074","CLASSIFICATION_TYPE":"U"},{"LAUNCH_DATE":"2021-09-14","PERIOD":"96.107","TIME_SYSTEM":"UTC","RCS_SIZE":"LARGE","REV_AT_EPOCH":"4450","PERIAPSIS":"570.129","ARG_OF_PERICENTER":"274.1734","BSTAR":"0.00006905300000","NORAD_CAT_ID":"49171","EPOCH":"2022-06-25T21:36:32.407776","EPHEMERIS_TYPE":"0","RA_OF_ASC_NODE":"105.3121","ELEMENT_SET_NO":"999","CENTER_NAME":"EARTH","MEAN_MOTION":"14.98335776","OBJECT_TYPE":"PAYLOAD","TLE_LINE2":"2 49171  69.9991 105.3121 0002749 274.1734  85.9111 14.98335776 44501","FILE":"3502557","DECAY_DATE":null,"INCLINATION":"69.9991","SITE":"AFWTR","MEAN_MOTION_DOT":"0.00000731","OBJECT_ID":"2021-082AT","TLE_LINE1":"1 49171U 21082AT  22176.90037509  .00000731  00000-0  69053-4 0  9994","MEAN_ELEMENT_THEORY":"SGP4","COUNTRY_CODE":"US","SEMIMAJOR_AXIS":"6950.175","REF_FRAME":"TEME","CLASSIFICATION_TYPE":"U","OBJECT_NAME":"STARLINK-3107","GP_ID":"206856866","ECCENTRICITY":"0.00027490","MEAN_MOTION_DDOT":"0.0000000000000","APOAPSIS":"573.951","MEAN_ANOMALY":"85.9111"},{"SITE":"AFWTR","INCLINATION":"69.9996","MEAN_MOTION_DOT":"0.00000912","TLE_LINE1":"1 49172U 21082AU  22176.91132727  .00000912  00000-0  87683-4 0  9994","MEAN_ELEMENT_THEORY":"SGP4","COUNTRY_CODE":"US","SEMIMAJOR_AXIS":"6955.212","OBJECT_ID":"2021-082AU","REF_FRAME":"TEME","CLASSIFICATION_TYPE":"U","OBJECT_NAME":"STARLINK-3091","MEAN_MOTION_DDOT":"0.0000000000000","GP_ID":"206857116","ECCENTRICITY":"0.00028980","MEAN_ANOMALY":"94.5128","APOAPSIS":"579.093","RCS_SIZE":"LARGE","LAUNCH_DATE":"2021-09-14","TIME_SYSTEM":"UTC","PERIOD":"96.211","PERIAPSIS":"575.061","ARG_OF_PERICENTER":"265.5699","REV_AT_EPOCH":"4384","EPHEMERIS_TYPE":"0","RA_OF_ASC_NODE":"84.8928","BSTAR":"0.00008768300000","EPOCH":"2022-06-25T21:52:18.676128","NORAD_CAT_ID":"49172","CENTER_NAME":"EARTH","MEAN_MOTION":"14.96708435","ELEMENT_SET_NO":"999","TLE_LINE2":"2 49172  69.9996  84.8928 0002898 265.5699  94.5128 14.96708435 43846","OBJECT_TYPE":"PAYLOAD","FILE":"3502557","DECAY_DATE":null},{"CLASSIFICATION_TYPE":"U","OBJECT_NAME":"STARLINK-3045","ECCENTRICITY":"0.00029770","GP_ID":"206855865","MEAN_MOTION_DDOT":"0.0000000000000","APOAPSIS":"579.140","MEAN_ANOMALY":"93.2872","INCLINATION":"69.9995","SITE":"AFWTR","MEAN_MOTION_DOT":"-0.00000331","OBJECT_ID":"2021-082AV","COUNTRY_CODE":"US","SEMIMAJOR_AXIS":"6955.204","MEAN_ELEMENT_THEORY":"SGP4","TLE_LINE1":"1 49173U 21082AV  22176.86572062 -.00000331  00000-0 -20903-4 0  9998","REF_FRAME":"TEME","ELEMENT_SET_NO":"999","MEAN_MOTION":"14.96710875","CENTER_NAME":"EARTH","OBJECT_TYPE":"PAYLOAD","TLE_LINE2":"2 49173  69.9995  85.0025 0002977 266.7946  93.2872 14.96710875 43846","FILE":"3502557","DECAY_DATE":null,"LAUNCH_DATE":"2021-09-14","TIME_SYSTEM":"UTC","PERIOD":"96.211","RCS_SIZE":"LARGE","PERIAPSIS":"574.999","REV_AT_EPOCH":"4384","ARG_OF_PERICENTER":"266.7946","NORAD_CAT_ID":"49173","EPOCH":"2022-06-25T20:46:38.261568","BSTAR":"-0.00002090300000","EPHEMERIS_TYPE":"0","RA_OF_ASC_NODE":"85.0025"},{"RCS_SIZE":"LARGE","LAUNCH_DATE":"2021-09-14","PERIOD":"96.211","TIME_SYSTEM":"UTC","PERIAPSIS":"574.893","REV_AT_EPOCH":"4501","ARG_OF_PERICENTER":"259.9882","EPHEMERIS_TYPE":"0","RA_OF_ASC_NODE":"85.0037","BSTAR":"0.00002379500000","EPOCH":"2022-06-25T20:41:59.057376","NORAD_CAT_ID":"49174","CENTER_NAME":"EARTH","MEAN_MOTION":"14.96714395","ELEMENT_SET_NO":"999","TLE_LINE2":"2 49174  69.9988  85.0037 0003113 259.9882 100.0925 14.96714395 45016","OBJECT_TYPE":"PAYLOAD","FILE":"3502557","DECAY_DATE":null,"SITE":"AFWTR","INCLINATION":"69.9988","MEAN_MOTION_DOT":"0.00000181","MEAN_ELEMENT_THEORY":"SGP4","TLE_LINE1":"1 49174U 21082AW  22176.86248909  .00000181  00000-0  23795-4 0  9992","SEMIMAJOR_AXIS":"6955.194","COUNTRY_CODE":"US","OBJECT_ID":"2021-082AW","REF_FRAME":"TEME","CLASSIFICATION_TYPE":"U","OBJECT_NAME":"STARLINK-3047","MEAN_MOTION_DDOT":"0.0000000000000","GP_ID":"206856115","ECCENTRICITY":"0.00031130","MEAN_ANOMALY":"100.0925","APOAPSIS":"579.224"}];
